IRIDIUM 126             
1 42809U 17039G   25089.76971179  .00000225  00000+0  73184-4 0  9999
2 42809  86.4044 178.9558 0002210  88.8953 271.2496 14.34217739406394
IRIDIUM 124             
1 42810U 17039H   25090.09765934  .00000339  00000+0  94919-4 0  9994
2 42810  86.4451 115.6340 0002003  91.8218 268.3213 14.43276941411203
IRIDIUM 128             
1 42811U 17039J   25089.83021295  .00000357  00000+0  12034-3 0  9997
2 42811  86.4022 210.3879 0001720 101.8054 258.3335 14.34213425406434
IRIDIUM 121             
1 42812U 17039K   25089.85850912  .00000177  00000+0  56096-4 0  9993
2 42812  86.4044 178.9431 0002132 102.1209 258.0226 14.34215384406405
IRIDIUM 133             
1 42955U 17061A   25089.86193163  .00000566  00000+0  19492-3 0  9995
2 42955  86.4025 210.4810 0002034  96.1004 264.0423 14.34217962391235
IRIDIUM 100             
1 42956U 17061B   25089.85558687  .00000223  00000+0  72406-4 0  9996
2 42956  86.4019 210.4130 0001979  93.1756 266.9666 14.34215457391239
IRIDIUM 122             
1 42957U 17061C   25089.89364406 -.00000389  00000+0 -14589-3 0  9997
2 42957  86.4021 210.3963 0001867  89.1846 270.9563 14.34216262391244
IRIDIUM 129             
1 42958U 17061D   25089.84924690  .00000024  00000+0  13969-5 0  9997
2 42958  86.4020 210.4768 0002476  96.6213 263.5264 14.34216019391253
